[{"CCSDS_OMM_VERS":"3.0","COMMENT":"GENERATED VIA SPACE-TRACK.ORG API","CREATION_DATE":"2014-09-24T16:22:47","ORIGINATOR":"18 SPCS","OBJECT_NAME":"FENGYUN 1C DEB","OBJECT_ID":"1999-025CLV","CENTER_NAME":"EARTH","REF_FRAME":"TEME","TIME_SYSTEM":"UTC","MEAN_ELEMENT_THEORY":"SGP4","EPOCH":"2014-05-02T18:03:07.190784","MEAN_MOTION":"14.81190296","ECCENTRICITY":"0.00237530","INCLINATION":"99.1595","RA_OF_ASC_NODE":"314.5411","ARG_OF_PERICENTER":"99.2427","MEAN_ANOMALY":"252.2651","EPHEMERIS_TYPE":"0","CLASSIFICATION_TYPE":"U","NORAD_CAT_ID":"31918","ELEMENT_SET_NO":"999","REV_AT_EPOCH":"36091","BSTAR":"0.01334300000000","MEAN_MOTION_DOT":"0.00105857","MEAN_MOTION_DDOT":"0.0000000000000","SEMIMAJOR_AXIS":"7003.710","PERIOD":"97.219","APOAPSIS":"642.211","PERIAPSIS":"608.940","OBJECT_TYPE":"DEBRIS","RCS_SIZE":"SMALL","COUNTRY_CODE":"PRC","LAUNCH_DATE":"1999-05-10","SITE":"TSC","DECAY_DATE":"2014-11-11","FILE":"1751714","GP_ID":"97075692","TLE_LINE0":"0 FENGYUN 1C DEB","TLE_LINE1":"1 31918U 99025CLV 14122.75216656  .00105857  00000-0  13343-1 0  9996","TLE_LINE2":"2 31918 099.1595 314.5411 0023753 099.2427 252.2651 14.81190296360917"},{"CCSDS_OMM_VERS":"3.0","COMMENT":"GENERATED VIA SPACE-TRACK.ORG API","CREATION_DATE":"2026-03-28T04:18:04","ORIGINATOR":"18 SPCS","OBJECT_NAME":"FENGYUN 1C DEB","OBJECT_ID":"1999-025CLW","CENTER_NAME":"EARTH","REF_FRAME":"TEME","TIME_SYSTEM":"UTC","MEAN_ELEMENT_THEORY":"SGP4","EPOCH":"2026-03-27T16:51:49.194144","MEAN_MOTION":"14.46107726","ECCENTRICITY":"0.01009810","INCLINATION":"99.1162","RA_OF_ASC_NODE":"241.8386","ARG_OF_PERICENTER":"254.9807","MEAN_ANOMALY":"119.4010","EPHEMERIS_TYPE":"0","CLASSIFICATION_TYPE":"U","NORAD_CAT_ID":"31919","ELEMENT_SET_NO":"999","REV_AT_EPOCH":"98598","BSTAR":"0.00034695200000","MEAN_MOTION_DOT":"0.00001263","MEAN_MOTION_DDOT":"0.0000000000000","SEMIMAJOR_AXIS":"7116.527","PERIOD":"99.578","APOAPSIS":"810.255","PERIAPSIS":"666.528","OBJECT_TYPE":"DEBRIS","RCS_SIZE":"SMALL","COUNTRY_CODE":"PRC","LAUNCH_DATE":"1999-05-10","SITE":"TSC","DECAY_DATE":null,"FILE":"5102610","GP_ID":"317341520","TLE_LINE0":"0 FENGYUN 1C DEB","TLE_LINE1":"1 31919U 99025CLW 26086.70265271  .00001263  00000-0  34695-3 0  9992","TLE_LINE2":"2 31919  99.1162 241.8386 0100981 254.9807 119.4010 14.46107726985982"},{"CCSDS_OMM_VERS":"3.0","COMMENT":"GENERATED VIA SPACE-TRACK.ORG API","CREATION_DATE":"2025-04-14T03:05:54","ORIGINATOR":"18 SPCS","OBJECT_NAME":"FENGYUN 1C DEB","OBJECT_ID":"1999-025CLX","CENTER_NAME":"EARTH","REF_FRAME":"TEME","TIME_SYSTEM":"UTC","MEAN_ELEMENT_THEORY":"SGP4","EPOCH":"2025-04-13T09:58:22.040832","MEAN_MOTION":"15.92395209","ECCENTRICITY":"0.00283760","INCLINATION":"98.7589","RA_OF_ASC_NODE":"88.4677","ARG_OF_PERICENTER":"126.2024","MEAN_ANOMALY":"234.1876","EPHEMERIS_TYPE":"0","CLASSIFICATION_TYPE":"U","NORAD_CAT_ID":"31920","ELEMENT_SET_NO":"999","REV_AT_EPOCH":"96511","BSTAR":"0.00406600000000","MEAN_MOTION_DOT":"0.01400972","MEAN_MOTION_DDOT":"0.0009516200000","SEMIMAJOR_AXIS":"6673.719","PERIOD":"90.430","APOAPSIS":"314.522","PERIAPSIS":"276.647","OBJECT_TYPE":"DEBRIS","RCS_SIZE":"SMALL","COUNTRY_CODE":"PRC","LAUNCH_DATE":"1999-05-10","SITE":"TSC","DECAY_DATE":"2025-04-19","FILE":"4701263","GP_ID":"285532513","TLE_LINE0":"0 FENGYUN 1C DEB","TLE_LINE1":"1 31920U 99025CLX 25103.41553288  .01400972  95162-3  40660-2 0  9994","TLE_LINE2":"2 31920  98.7589  88.4677 0028376 126.2024 234.1876 15.92395209965114"},{"CCSDS_OMM_VERS":"3.0","COMMENT":"GENERATED VIA SPACE-TRACK.ORG API","CREATION_DATE":"2026-03-28T16:56:20","ORIGINATOR":"18 SPCS","OBJECT_NAME":"FENGYUN 1C DEB","OBJECT_ID":"1999-025CLY","CENTER_NAME":"EARTH","REF_FRAME":"TEME","TIME_SYSTEM":"UTC","MEAN_ELEMENT_THEORY":"SGP4","EPOCH":"2026-03-28T09:58:45.835392","MEAN_MOTION":"13.75571758","ECCENTRICITY":"0.02033740","INCLINATION":"99.3334","RA_OF_ASC_NODE":"342.6430","ARG_OF_PERICENTER":"347.0159","MEAN_ANOMALY":"12.5800","EPHEMERIS_TYPE":"0","CLASSIFICATION_TYPE":"U","NORAD_CAT_ID":"31921","ELEMENT_SET_NO":"999","REV_AT_EPOCH":"93759","BSTAR":"0.00125480000000","MEAN_MOTION_DOT":"0.00001362","MEAN_MOTION_DDOT":"0.0000000000000","SEMIMAJOR_AXIS":"7357.772","PERIOD":"104.684","APOAPSIS":"1129.275","PERIAPSIS":"829.999","OBJECT_TYPE":"DEBRIS","RCS_SIZE":"SMALL","COUNTRY_CODE":"PRC","LAUNCH_DATE":"1999-05-10","SITE":"TSC","DECAY_DATE":null,"FILE":"5104284","GP_ID":"317438693","TLE_LINE0":"0 FENGYUN 1C DEB","TLE_LINE1":"1 31921U 99025CLY 26087.41580828  .00001362  00000-0  12548-2 0  9994","TLE_LINE2":"2 31921  99.3334 342.6430 0203374 347.0159  12.5800 13.75571758937597"},{"CCSDS_OMM_VERS":"3.0","COMMENT":"GENERATED VIA SPACE-TRACK.ORG API","CREATION_DATE":"2026-03-28T09:06:36","ORIGINATOR":"18 SPCS","OBJECT_NAME":"FENGYUN 1C DEB","OBJECT_ID":"1999-025CLZ","CENTER_NAME":"EARTH","REF_FRAME":"TEME","TIME_SYSTEM":"UTC","MEAN_ELEMENT_THEORY":"SGP4","EPOCH":"2026-03-27T22:36:07.042752","MEAN_MOTION":"13.87059272","ECCENTRICITY":"0.01627980","INCLINATION":"98.8154","RA_OF_ASC_NODE":"77.3289","ARG_OF_PERICENTER":"100.1820","MEAN_ANOMALY":"316.2410","EPHEMERIS_TYPE":"0","CLASSIFICATION_TYPE":"U","NORAD_CAT_ID":"31922","ELEMENT_SET_NO":"999","REV_AT_EPOCH":"94475","BSTAR":"0.00130310000000","MEAN_MOTION_DOT":"0.00001656","MEAN_MOTION_DDOT":"0.0000000000000","SEMIMAJOR_AXIS":"7317.092","PERIOD":"103.817","APOAPSIS":"1058.077","PERIAPSIS":"819.836","OBJECT_TYPE":"DEBRIS","RCS_SIZE":"SMALL","COUNTRY_CODE":"PRC","LAUNCH_DATE":"1999-05-10","SITE":"TSC","DECAY_DATE":null,"FILE":"5103426","GP_ID":"317385150","TLE_LINE0":"0 FENGYUN 1C DEB","TLE_LINE1":"1 31922U 99025CLZ 26086.94174818  .00001656  00000-0  13031-2 0  9994","TLE_LINE2":"2 31922  98.8154  77.3289 0162798 100.1820 316.2410 13.87059272944755"},{"CCSDS_OMM_VERS":"3.0","COMMENT":"GENERATED VIA SPACE-TRACK.ORG API","CREATION_DATE":"2026-03-27T10:51:03","ORIGINATOR":"18 SPCS","OBJECT_NAME":"FENGYUN 1C DEB","OBJECT_ID":"1999-025CMA","CENTER_NAME":"EARTH","REF_FRAME":"TEME","TIME_SYSTEM":"UTC","MEAN_ELEMENT_THEORY":"SGP4","EPOCH":"2026-03-27T04:25:09.276960","MEAN_MOTION":"13.55209917","ECCENTRICITY":"0.02991308","INCLINATION":"98.4290","RA_OF_ASC_NODE":"169.9213","ARG_OF_PERICENTER":"32.2480","MEAN_ANOMALY":"329.6570","EPHEMERIS_TYPE":"0","CLASSIFICATION_TYPE":"U","NORAD_CAT_ID":"31923","ELEMENT_SET_NO":"999","REV_AT_EPOCH":"65049","BSTAR":"0.00093350281000","MEAN_MOTION_DOT":"0.00000825","MEAN_MOTION_DDOT":"0.0000000000000","SEMIMAJOR_AXIS":"7431.289","PERIOD":"106.257","APOAPSIS":"1275.446","PERIAPSIS":"830.861","OBJECT_TYPE":"DEBRIS","RCS_SIZE":"SMALL","COUNTRY_CODE":"PRC","LAUNCH_DATE":"1999-05-10","SITE":"TSC","DECAY_DATE":null,"FILE":"5101052","GP_ID":"317237611","TLE_LINE0":"0 FENGYUN 1C DEB","TLE_LINE1":"1 31923U 99025CMA 26086.18413515  .00000825  00000-0  93350-3 0  9991","TLE_LINE2":"2 31923  98.4290 169.9213 0299131  32.2480 329.6570 13.55209917650495"},{"CCSDS_OMM_VERS":"3.0","COMMENT":"GENERATED VIA SPACE-TRACK.ORG API","CREATION_DATE":"2026-03-28T16:56:20","ORIGINATOR":"18 SPCS","OBJECT_NAME":"FENGYUN 1C DEB","OBJECT_ID":"1999-025CMB","CENTER_NAME":"EARTH","REF_FRAME":"TEME","TIME_SYSTEM":"UTC","MEAN_ELEMENT_THEORY":"SGP4","EPOCH":"2026-03-28T08:18:15.073056","MEAN_MOTION":"13.64318100","ECCENTRICITY":"0.02752490","INCLINATION":"98.4073","RA_OF_ASC_NODE":"235.5823","ARG_OF_PERICENTER":"176.8489","MEAN_ANOMALY":"183.4473","EPHEMERIS_TYPE":"0","CLASSIFICATION_TYPE":"U","NORAD_CAT_ID":"31924","ELEMENT_SET_NO":"999","REV_AT_EPOCH":"92907","BSTAR":"0.00251960000000","MEAN_MOTION_DOT":"0.00002573","MEAN_MOTION_DDOT":"0.0000000000000","SEMIMAJOR_AXIS":"7398.178","PERIOD":"105.547","APOAPSIS":"1223.677","PERIAPSIS":"816.408","OBJECT_TYPE":"DEBRIS","RCS_SIZE":"SMALL","COUNTRY_CODE":"PRC","LAUNCH_DATE":"1999-05-10","SITE":"TSC","DECAY_DATE":null,"FILE":"5104284","GP_ID":"317438950","TLE_LINE0":"0 FENGYUN 1C DEB","TLE_LINE1":"1 31924U 99025CMB 26087.34600779  .00002573  00000-0  25196-2 0  9995","TLE_LINE2":"2 31924  98.4073 235.5823 0275249 176.8489 183.4473 13.64318100929076"},{"CCSDS_OMM_VERS":"3.0","COMMENT":"GENERATED VIA SPACE-TRACK.ORG API","CREATION_DATE":"2010-09-13T11:49:34","ORIGINATOR":"18 SPCS","OBJECT_NAME":"FENGYUN 1C DEB","OBJECT_ID":"1999-025CMC","CENTER_NAME":"EARTH","REF_FRAME":"TEME","TIME_SYSTEM":"UTC","MEAN_ELEMENT_THEORY":"SGP4","EPOCH":"2010-08-31T02:12:19.438560","MEAN_MOTION":"15.88385658","ECCENTRICITY":"0.00417510","INCLINATION":"98.3563","RA_OF_ASC_NODE":"348.0898","ARG_OF_PERICENTER":"308.4710","MEAN_ANOMALY":"288.6227","EPHEMERIS_TYPE":"0","CLASSIFICATION_TYPE":"U","NORAD_CAT_ID":"31925","ELEMENT_SET_NO":"999","REV_AT_EPOCH":"18030","BSTAR":"0.00391810000000","MEAN_MOTION_DOT":"0.01150215","MEAN_MOTION_DDOT":"0.0005679600000","SEMIMAJOR_AXIS":"6684.949","PERIOD":"90.658","APOAPSIS":"334.725","PERIAPSIS":"278.904","OBJECT_TYPE":"DEBRIS","RCS_SIZE":"SMALL","COUNTRY_CODE":"PRC","LAUNCH_DATE":"1999-05-10","SITE":"TSC","DECAY_DATE":"2010-09-04","FILE":"961679","GP_ID":"79524124","TLE_LINE0":"0 FENGYUN 1C DEB","TLE_LINE1":"1 31925U 99025CMC 10243.09189165  .01150215  56796-3  39181-2 0  9999","TLE_LINE2":"2 31925 098.3563 348.0898 0041751 308.4710 288.6227 15.88385658180301"}]